{
  "type": "FeatureCollection",
  "features": [
    {
      "type": "Feature",
      "properties": {
        "norad_id": 30629,
        "name": "FENGYUN 1C DEB",
        "group": "fengyun-1c-debris",
        "lat": -34.568576028860605,
        "lon": -105.48162194207893,
        "alt_km": 695.6997109460945,
        "timestamp": "2025-12-11T05:00:26.586313+00:00",
        "meta_object_name": "FENGYUN 1C DEB",
        "meta_object_id": "1999-025ANL",
        "meta_epoch": "2025-12-10T05:16:34.544064",
        "meta_mean_motion": 14.59453912,
        "meta_eccentricity": 0.0007697,
        "meta_inclination": 99.2512,
        "meta_ra_of_asc_node": 79.8655,
        "meta_arg_of_pericenter": 204.2057,
        "meta_mean_anomaly": 218.4962,
        "meta_ephemeris_type": 0,
        "meta_classification_type": "U",
        "meta_norad_cat_id": 30629,
        "meta_element_set_no": 999,
        "meta_rev_at_epoch": 97853,
        "meta_bstar": 0.0047347,
        "meta_mean_motion_dot": 0.00022478,
        "meta_mean_motion_ddot": 0,
        "tle_line1": "1 30629U 99025ANL 25344.21984426  .00022478  00000+0  47347-2 0  9998",
        "tle_line2": "2 30629  99.2512  79.8655 0007697 204.2057 218.4962 14.59453912978536"
      },
      "geometry": {
        "type": "Point",
        "coordinates": [
          -105.48162194207893,
          -34.568576028860605
        ]
      }
    },
    {
      "type": "Feature",
      "properties": {
        "norad_id": 30630,
        "name": "FENGYUN 1C DEB",
        "group": "fengyun-1c-debris",
        "lat": 17.69172878172261,
        "lon": 155.2295183042593,
        "alt_km": 808.5602754000083,
        "timestamp": "2025-12-11T05:00:26.586323+00:00",
        "meta_object_name": "FENGYUN 1C DEB",
        "meta_object_id": "1999-025ANM",
        "meta_epoch": "2025-12-10T10:39:01.574208",
        "meta_mean_motion": 14.22363681,
        "meta_eccentricity": 0.00259802,
        "meta_inclination": 99.1729,
        "meta_ra_of_asc_node": 157.3885,
        "meta_arg_of_pericenter": 81.0772,
        "meta_mean_anomaly": 342.8563,
        "meta_ephemeris_type": 0,
        "meta_classification_type": "U",
        "meta_norad_cat_id": 30630,
        "meta_element_set_no": 999,
        "meta_rev_at_epoch": 97180,
        "meta_bstar": 0.0013137827,
        "meta_mean_motion_dot": 2.886e-05,
        "meta_mean_motion_ddot": 0,
        "tle_line1": "1 30630U 99025ANM 25344.44376822  .00002886  00000+0  13138-2 0  9992",
        "tle_line2": "2 30630  99.1729 157.3885 0025980  81.0772 342.8563 14.22363681971809"
      },
      "geometry": {
        "type": "Point",
        "coordinates": [
          155.2295183042593,
          17.69172878172261
        ]
      }
    },
    {
      "type": "Feature",
      "properties": {
        "norad_id": 30632,
        "name": "FENGYUN 1C DEB",
        "group": "fengyun-1c-debris",
        "lat": -12.835527663825035,
        "lon": 118.48173461245888,
        "alt_km": 699.673265106655,
        "timestamp": "2025-12-11T05:00:26.586332+00:00",
        "meta_object_name": "FENGYUN 1C DEB",
        "meta_object_id": "1999-025ANP",
        "meta_epoch": "2025-12-10T07:51:28.287072",
        "meta_mean_motion": 14.62604263,
        "meta_eccentricity": 0.00151,
        "meta_inclination": 98.8235,
        "meta_ra_of_asc_node": 115.5124,
        "meta_arg_of_pericenter": 176.5378,
        "meta_mean_anomaly": 213.1863,
        "meta_ephemeris_type": 0,
        "meta_classification_type": "U",
        "meta_norad_cat_id": 30632,
        "meta_element_set_no": 999,
        "meta_rev_at_epoch": 97656,
        "meta_bstar": 0.0059803,
        "meta_mean_motion_dot": 0.00030516,
        "meta_mean_motion_ddot": 0,
        "tle_line1": "1 30632U 99025ANP 25344.32741073  .00030516  00000+0  59803-2 0  9995",
        "tle_line2": "2 30632  98.8235 115.5124 0015100 176.5378 213.1863 14.62604263976565"
      },
      "geometry": {
        "type": "Point",
        "coordinates": [
          118.48173461245888,
          -12.835527663825035
        ]
      }
    },
    {
      "type": "Feature",
      "properties": {
        "norad_id": 30633,
        "name": "FENGYUN 1C DEB",
        "group": "fengyun-1c-debris",
        "lat": -15.295419688969888,
        "lon": 27.99960933354175,
        "alt_km": 848.6986345859532,
        "timestamp": "2025-12-11T05:00:26.586342+00:00",
        "meta_object_name": "FENGYUN 1C DEB",
        "meta_object_id": "1999-025ANQ",
        "meta_epoch": "2025-12-09T14:34:27.481728",
        "meta_mean_motion": 14.04375509,
        "meta_eccentricity": 0.0130473,
        "meta_inclination": 98.4203,
        "meta_ra_of_asc_node": 208.8357,
        "meta_arg_of_pericenter": 269.1329,
        "meta_mean_anomaly": 115.9506,
        "meta_ephemeris_type": 0,
        "meta_classification_type": "U",
        "meta_norad_cat_id": 30633,
        "meta_element_set_no": 999,
        "meta_rev_at_epoch": 95848,
        "meta_bstar": 0.0013932,
        "meta_mean_motion_dot": 2.352e-05,
        "meta_mean_motion_ddot": 0,
        "tle_line1": "1 30633U 99025ANQ 25343.60726252  .00002352  00000+0  13932-2 0  9998",
        "tle_line2": "2 30633  98.4203 208.8357 0130473 269.1329 115.9506 14.04375509958485"
      },
      "geometry": {
        "type": "Point",
        "coordinates": [
          27.99960933354175,
          -15.295419688969888
        ]
      }
    },
    {
      "type": "Feature",
      "properties": {
        "norad_id": 30634,
        "name": "FENGYUN 1C DEB",
        "group": "fengyun-1c-debris",
        "lat": 5.5387315362075205,
        "lon": 148.88875324223747,
        "alt_km": 836.6199199411931,
        "timestamp": "2025-12-11T05:00:26.586352+00:00",
        "meta_object_name": "FENGYUN 1C DEB",
        "meta_object_id": "1999-025ANR",
        "meta_epoch": "2025-12-10T21:31:47.153856",
        "meta_mean_motion": 14.09686013,
        "meta_eccentricity": 0.01207023,
        "meta_inclination": 99.2927,
        "meta_ra_of_asc_node": 327.6575,
        "meta_arg_of_pericenter": 101.7489,
        "meta_mean_anomaly": 290.9015,
        "meta_ephemeris_type": 0,
        "meta_classification_type": "U",
        "meta_norad_cat_id": 30634,
        "meta_element_set_no": 999,
        "meta_rev_at_epoch": 95591,
        "meta_bstar": 0.0030569242,
        "meta_mean_motion_dot": 5.694e-05,
        "meta_mean_motion_ddot": 0,
        "tle_line1": "1 30634U 99025ANR 25344.89707354  .00005694  00000+0  30569-2 0  9990",
        "tle_line2": "2 30634  99.2927 327.6575 0120702 101.7489 290.9015 14.09686013955916"
      },
      "geometry": {
        "type": "Point",
        "coordinates": [
          148.88875324223747,
          5.5387315362075205
        ]
      }
    },
    {
      "type": "Feature",
      "properties": {
        "norad_id": 30639,
        "name": "FENGYUN 1C DEB",
        "group": "fengyun-1c-debris",
        "lat": 73.05274563863857,
        "lon": 65.72424293171088,
        "alt_km": 818.7177630946062,
        "timestamp": "2025-12-11T05:00:26.586362+00:00",
        "meta_object_name": "FENGYUN 1C DEB",
        "meta_object_id": "1999-025ANW",
        "meta_epoch": "2025-12-10T18:35:40.511616",
        "meta_mean_motion": 14.32280292,
        "meta_eccentricity": 0.0067372,
        "meta_inclination": 99.018,
        "meta_ra_of_asc_node": 96.6831,
        "meta_arg_of_pericenter": 286.9572,
        "meta_mean_anomaly": 72.4233,
        "meta_ephemeris_type": 0,
        "meta_classification_type": "U",
        "meta_norad_cat_id": 30639,
        "meta_element_set_no": 999,
        "meta_rev_at_epoch": 96691,
        "meta_bstar": 0.0047038809,
        "meta_mean_motion_dot": 0.0001299,
        "meta_mean_motion_ddot": 0,
        "tle_line1": "1 30639U 99025ANW 25344.77477444  .00012990  00000+0  47039-2 0  9993",
        "tle_line2": "2 30639  99.0180  96.6831 0067372 286.9572  72.4233 14.32280292966912"
      },
      "geometry": {
        "type": "Point",
        "coordinates": [
          65.72424293171088,
          73.05274563863857
        ]
      }
    },
    {
      "type": "Feature",
      "properties": {
        "norad_id": 30640,
        "name": "FENGYUN 1C DEB",
        "group": "fengyun-1c-debris",
        "lat": -51.200795190262546,
        "lon": 67.8356645773345,
        "alt_km": 904.2600025139318,
        "timestamp": "2025-12-11T05:00:26.586373+00:00",
        "meta_object_name": "FENGYUN 1C DEB",
        "meta_object_id": "1999-025ANX",
        "meta_epoch": "2025-12-10T23:18:28.999872",
        "meta_mean_motion": 14.14615101,
        "meta_eccentricity": 0.0081027,
        "meta_inclination": 99.0567,
        "meta_ra_of_asc_node": 56.1524,
        "meta_arg_of_pericenter": 105.5479,
        "meta_mean_anomaly": 74.1017,
        "meta_ephemeris_type": 0,
        "meta_classification_type": "U",
        "meta_norad_cat_id": 30640,
        "meta_element_set_no": 999,
        "meta_rev_at_epoch": 96420,
        "meta_bstar": 0.00205847,
        "meta_mean_motion_dot": 4.039e-05,
        "meta_mean_motion_ddot": 0,
        "tle_line1": "1 30640U 99025ANX 25344.97116898  .00004039  00000+0  20585-2 0  9992",
        "tle_line2": "2 30640  99.0567  56.1524 0081027 105.5479  74.1017 14.14615101964208"
      },
      "geometry": {
        "type": "Point",
        "coordinates": [
          67.8356645773345,
          -51.200795190262546
        ]
      }
    }
  ]
}